id,name,latitude,longitude,phone,distance
266740082,Swamy Hospital,12.8550625,77.6642727,Phone number not available,15.0761474
267214379,Clinic,12.9134182,77.6774852,Phone number not available,11.16826838
303924572,Shanti Hospital,12.9235041,77.5857517,Phone number not available,5.449875338
307401529,Apollo Hospital,12.9263714,77.6765455,-40222544,10.30674925
308866071,Narayana Hrudayalaya Dental Clinic,12.9155759,77.6349897,Phone number not available,7.697151737
310393723,Dr Ganesh Medical and Diabetic Clinic,12.9129006,77.6419101,Phone number not available,8.386598787
364629422,JBS Hospital,12.9207173,77.5745968,Phone number not available,6.056076255
389493285,Government Hospital,12.7289287,77.8253132,Phone number not available,36.88356359
443612463,Sri Vijayalakshmi Pragathi Hospital,13.0371728,77.6409543,Phone number not available,8.881986412
454142398,Sathya Hospital,13.0185503,77.6364728,Phone number not available,6.955907795
459464857,Ramakrishna Hospital,12.8500655,77.6624706,9.18041E+11,15.46246446
519549595,Chord Road Hospital Pvt Ltd,12.9981215,77.5404836,+91-80-23225858;+91-80-23225868;+91-80-23225878,6.461343775
530353033,Pristline Hospital,12.9978931,77.5436127,+91-80-41354444;+91-80-51270776,6.148706403
582384953,"Bengaluru Hospital, Susruta Medical Aid AndResearch Home Limited",12.9376734,77.5802836,Phone number not available,4.074066745
625856709,Manipal Northside Hospital,13.0011275,77.5639285,080 2222 1111,4.579056228
663604723,Government Hospital (primary Health Centre),12.9503234,77.6162619,Phone number not available,3.42541983
665727326,Divakars speciality Hospital,12.9100629,77.5924585,Phone number not available,6.877287967
671185206,Hema Poly Clinic,12.960765,77.7137961,Phone number not available,13.07234414
671185798,Ayug's Health Care,12.9653074,77.7157312,Phone number not available,13.24344601
691930445,BMTC Hospital,12.9234317,77.5923374,Phone number not available,5.391451538
769216417,Ramakrishna Nursing Home and Hospital,12.9364329,77.583477,Phone number not available,4.096402072
954623054,Sri Vinayaka Poly Clinic,12.939058,77.5510802,080 2672 8455,5.887815325
966863252,RMV Hospital,13.0322788,77.576876,Phone number not available,6.956856971
975680681,Yashomathi Hospitals,12.9559302,77.7112689,Phone number not available,12.86301583
1005544881,Mallya Audikesh Diagnostics Center,12.9815051,77.6011944,9.18023E+11,1.341693909
1006462338,Mallige Medical Centre,12.985247,77.5803846,080 2220 3333,2.069837415
1067181192,Devine Hospital,13.0038999,77.6039313,Phone number not available,3.726914385
1085786951,Lalbagh Nursing Home,12.9452313,77.5861734,Phone number not available,3.075541026
1093355153,Dr. Batra Clinic,12.9797287,77.7271089,Phone number not available,14.48178273
1101622501,Government Maternity Hospital,12.9988604,77.5817424,Phone number not available,3.26585372
1101832740,Nova Hospital,13.0073436,77.5837111,Phone number not available,4.087053821
1108014134,Soujanya Clinic,12.9681189,77.54325,Phone number not available,5.482809492
1108040901,Kanva Diagnostics Collection Centre,12.967291,77.5429164,Phone number not available,5.526636661
1118656365,Vimalaya Hospital,12.8348788,77.6804209,Phone number not available,17.90214112
1150839598,New Akshay Mallya Hospital,12.9568527,77.6990468,Phone number not available,11.53740525
1186831410,Presidency Hospital,12.9951629,77.69923,Phone number not available,11.72334252
1228960966,BGS Gleneagles Hospitals,12.90306,77.4974982,Phone number not available,12.93394795
1272424543,Srinivas Clinic,12.9073391,77.5830655,Phone number not available,7.270763827
1318987638,Metro Hospital,12.8915893,77.560715,Phone number not available,9.619054524
1365797756,Brookefield Hospital(A Unit Of Sanjeevani Hospital),12.9668213,77.7168891,Phone number not available,13.36051008
1428600902,Fortis Clinic,12.9573067,77.7087044,Phone number not available,12.56713131
1436177631,ESI Hospital,12.995242,77.6523255,Phone number not available,6.862006452
1437213383,Karunalayam Hospital,12.9111263,77.7073377,Phone number not available,14.04725624
1438212033,SDS Tuberculosis Research Centre and Rajiv Gandhi Institute of Chest diseases,12.9367955,77.5907094,Phone number not available,3.916872108
1440343668,Maiya Multispecialty Hospital,12.942614,77.5854533,Phone number not available,3.376846672
1454651986,Narayana Netralaya,12.9671401,77.6094485,Phone number not available,1.786675724
1462232206,London Hospital,13.0806193,77.5482263,Phone number not available,13.05424996
1463452754,Nagappa Hadli Hospital,13.0829889,77.5489026,Phone number not available,13.27165268
1463507632,"Vasan Eye Care Hospital, Nagarabhavi",12.9746134,77.5129757,Phone number not available,8.752218502
1463555571,Rc Hospital,12.930936,77.5153776,Phone number not available,9.632526271
1463563608,Veturi Child Health Centre,12.9263226,77.5156579,Phone number not available,9.859444451
1463656830,Ketham's Hospital Pvt. Ltd,13.0686568,77.5582571,Phone number not available,11.42352122
1464742684,Ragavendra Hospital,13.0425433,77.5155377,Phone number not available,11.55054201
1464772262,Guru Kripa Clinic,13.0349833,77.5676844,Phone number not available,7.559658549
1464782617,Deeksha Orthopaedic Hospital,13.0973922,77.5964894,Phone number not available,13.95736738
1464783198,Shushrusha Nursing Home,13.0995971,77.597852,Phone number not available,14.20639167
1464921265,Chirag Hospital and Maternity Center,12.9126298,77.5913594,Phone number not available,6.595424888
1466477036,Udhbhava Hospital,12.9256842,77.5489346,Phone number not available,7.066977262
1466576385,DG Hospital,12.9206648,77.5598673,Phone number not available,6.774905297
1466638204,Srinivasa Nursing Home,12.9423039,77.6174893,Phone number not available,4.180408122
1466742313,Government Hospital,12.680279,77.4693911,Phone number not available,35.11611727
1467778591,Kangila Clinic,12.9336501,77.5660602,Phone number not available,5.202009986
1467969798,Chaitanya Hospital,13.0990911,77.5861904,Phone number not available,14.16638244
1468540733,"Vasan Eye Care Hospital, Koramangala",12.9402371,77.6253403,Phone number not available,4.914419114
1468908276,A K Clinic,12.907421,77.6492935,Phone number not available,9.364967566
1468908282,Asha Clinic,12.9158901,77.6506948,Phone number not available,8.771389874
1468908300,health nest,12.9075992,77.6488507,Phone number not available,9.318955717
1469035492,Amma's ENT Clinic,13.0281613,77.5793947,Phone number not available,6.445105758
1469036754,Krishna Specialty Clinic,13.026721,77.5789272,Phone number not available,6.302443125
1469181813,Seventh Day Adventist Hospital,12.995625,77.6113272,Phone number not available,3.256908919
1469314053,Srinivasa Nursing Home,12.9965077,77.6220456,Phone number not available,4.113387027
1470603498,Kids Care Clinic,12.914434,77.6050207,Phone number not available,6.506632504
1471128628,Pristine Health care,12.9382768,77.6186753,Phone number not available,4.615506743
1471719697,Prerana Dental Clinic,12.9186845,77.630774,Phone number not available,7.1523427
1471720698,Mamtha Health Center,12.9180492,77.6318764,Phone number not available,7.278137131
1471737564,Suprabha Hospital,13.0079383,77.5469059,Phone number not available,6.462530979
1471738635,Sangolli Nursing Home,13.0083564,77.5469273,Phone number not available,6.489647107
1471781028,Diacon Hospital,13.0037682,77.5498337,Phone number not available,5.928515293
1471781389,Nelamangala General Hospital,13.0987847,77.3912296,Phone number not available,26.07952228
1472015890,Agarwal Eye Hospital,12.9273417,77.6221301,Phone number not available,5.834420931
1472037865,Sri Sapthagiri Clinic,12.8736928,77.6449626,Phone number not available,12.25218659
1472111625,Sagar Dental Clinic,12.9168875,77.6300639,Phone number not available,7.276563823
1472735174,Venkateshwara Hospital,12.9257842,77.6170828,Phone number not available,5.719753408
1472808792,Namratha Hospital,13.0047859,77.543073,Phone number not available,6.592559394
1472878021,Devi Eye Hospital,12.9162576,77.6374069,Phone number not available,7.791994929
1473002847,Government Maternity Hospital,13.0214606,77.5535399,Phone number not available,7.021599406
1473023593,Mysore Hospital,13.0275337,77.5397051,Phone number not available,8.514245304
1473296715,Jayanagar Orthopaedic Centre,12.9293288,77.5877091,Phone number not available,4.778012878
1473921774,Shekar Hospital,12.9458714,77.5675192,Phone number not available,4.052826388
1474001855,Punya Hospital,13.0011459,77.5359798,Phone number not available,7.049001925
1474106961,Apollo Clinic,12.8517246,77.6681472,Phone number not available,15.61003183
1474277938,Parimala Clinic,12.9135707,77.5788941,Phone number not available,6.681441041
1474317196,Karanth Speciality Hospital,12.9160081,77.6193573,Phone number not available,6.808518475
1474323515,Gangothri Hospital,12.9162878,77.6138218,Phone number not available,6.557001762
1474432217,Vignan Hospital,12.9438988,77.5968766,Phone number not available,3.132561817
1474449391,Spurthy Hospital,12.9239335,77.61116,Phone number not available,5.659299145
1474458358,Prasad Eye Hospital,12.9351929,77.6086817,Phone number not available,4.392670048
1474472488,NIMHANS Screening block,12.9387115,77.5937737,Phone number not available,3.690401465
1474472859,NIMHANS OPD,12.9388056,77.5942994,Phone number not available,3.680502577
1474511948,Manjunath Hospital,12.9483598,77.5940621,Phone number not available,2.617844892
1474512442,Karthik Hospital,12.9484356,77.5942592,Phone number not available,2.609825808
1474819060,Aswad Hospital,12.9147871,77.6247622,Phone number not available,7.187645669
1474819111,TSR heart care,13.0264438,77.5933686,Phone number not available,6.065100122
1474819886,Fortis Hospital,13.0022409,77.5490879,Phone number not available,5.894688765
1474819896,Citi Hospital,12.9956506,77.5510696,-23131767,5.320772014
1474819897,"Vasan Eye Care Hospital, Rajaji Nagar",12.9995223,77.5505328,Phone number not available,5.595556123
1474819898,Ananya Hospital,12.9998205,77.55045,Phone number not available,5.621300031
1474820321,Baptist,12.9970915,77.5719766,Phone number not available,3.658792757
1474827898,Shivakrupa Hospital,12.973967,77.5479135,Phone number not available,4.966600185
1474875685,Dr. Ambedkar Medical College Hospital,13.0248621,77.6139585,Phone number not available,6.284853034
1617398469,"Sri Maruthi hospital, Sheshadripuram",12.9926441,77.5742046,080 2344 9632,3.127735827
1693120843,Sunny Medicals Hospital Clinic,12.9267954,77.6699091,Phone number not available,9.662196026
1722802205,Karunya Homoeopathy Centre,13.0307899,77.653594,Phone number not available,9.218955818
1724416882,Ayur Seva Hospital,13.0148188,77.6653699,Phone number not available,9.114547558
1727637379,Vinayaka Specialty Hospital,12.8990004,77.6218548,Phone number not available,8.661308453
1752642584,Dental Clinic,12.9557076,77.6982064,Phone number not available,11.46663793
1761866934,Koshys Hospital,13.0207033,77.6760593,Phone number not available,10.44390027
1778854020,Gurushree Hitech Multispeciality Hospital,12.9593144,77.5265054,Phone number not available,7.414475686
1778897704,"Shobha Hospital, Bengaluru Urban",12.9755854,77.5313495,Phone number not available,6.768496381
1778953072,"Gayathri Hospital, Bengaluru Urban",12.9744053,77.5426819,Phone number not available,5.535168411
1791567114,Rangadore Memorial Hospital,12.9534756,77.5710237,Phone number not available,3.199244235
1794111895,MEDSOL Hospital,12.9309944,77.4929837,Phone number not available,11.82410331
1794166166,Government Primary Health Centre,13.003447,77.504284,Phone number not available,10.30375995
1809734261,Bharathy Hospital,12.9761294,77.5326369,Phone number not available,6.633266396
1812673570,Yogananda Medical and Research Centre,12.9202791,77.5598033,Phone number not available,6.814747237
1818494842,"Government Primary Healthcare Center, Begur",12.8778532,77.6246582,Phone number not available,10.98258138
1835512586,Cure & Care Dental Clinic Dr. Moumita Mukherjee,12.9074968,77.6492213,Phone number not available,9.353480497
1871539757,Shirdi Sai Hospital,13.0372438,77.5648754,Phone number not available,7.908607133
1872596501,Public Health Center,12.9583794,77.8155232,Phone number not available,24.0837781
1894298053,Nayantara Opticals,12.8924828,77.6198497,Phone number not available,9.274383211
1905152108,Kottakkal Arya Vaidya Sala,12.9411061,77.5850591,Phone number not available,3.549846369
1958294905,"Charan Homeopathy, Ramamurthy Nagar",13.0100409,77.6674667,Phone number not available,9.04806477
1988322107,Dhanavantri Hospital,13.0834023,77.6348642,Phone number not available,13.17608201
2002686385,T.R.Hospital,12.8807554,77.5841671,Phone number not available,10.18734078
2012122119,Rainbow Clinic and Diagnostic Laboratory,12.891484,77.5816961,Phone number not available,9.035988876
2019362244,Cloud Nine Hospital,13.0078742,77.5625316,9972999729,5.235059149
2026076836,"Nayak Hospital, Gayathri Nagar",12.9993857,77.5606403,Phone number not available,4.708709618
2122595759,"Rajnandani Hospital, Bangalore",12.8845448,77.5701276,Phone number not available,10.04378619
2123564200,"Maharaja Agrasen Hospital, Bengaluru Urban",12.915903,77.5550223,Phone number not available,7.505920204
2123630630,Banashankari Referal Hospital,12.9231342,77.5642974,Phone number not available,6.289363994
2124813862,Bangalore Kidney Foundation - NU Hospital,12.9179548,77.555816,Phone number not available,7.268832189
2212459207,"Panacea Hospital, Nagarabhavi",12.9613237,77.511726,Phone number not available,8.960179762
2249069522,Shanbhag Hospital,12.9856882,77.5435424,Phone number not available,5.646908141
2268407035,Trupti Nursing Home,12.9946566,77.5397544,Phone number not available,6.369345485
2272455276,Srivijaya Speciality Hospital,13.0124345,77.6580271,Phone number not available,8.300144755
2285453337,Magnus Diagnostic Lab,12.9349187,77.6305022,Phone number not available,5.72838841
2296638505,Krupa Medical center,13.000431,77.5411664,Phone number not available,6.51647425
2343099977,Soukya Hospital,13.0774744,77.5587548,Phone number not available,12.33466782
2387173532,Greenview Medical Center,12.9191813,77.6381379,Phone number not available,7.586462639
2414612953,Vaidyaratnam Oushadhasala,12.9121004,77.6485848,Phone number not available,8.921432817
2447846664,Blossoms Hospital,12.9064393,77.6308237,Phone number not available,8.316735872
2449294308,Live100,12.8791713,77.6454925,Phone number not available,11.73981364
2475284844,ESi Hospital,13.0077936,77.6923101,Phone number not available,11.40547566
2480870848,Happy Tooth,12.9744193,77.5336479,Phone number not available,6.513075371
2480884777,Rishi Women and Child Clinic,12.9745812,77.532699,Phone number not available,6.616585961
2483779679,Penta Care Ayurvedic Hospital,12.9736894,77.5369482,Phone number not available,6.15266569
2484900084,Shalini Nursing & MAternity Home,12.9436624,77.5419997,Phone number not available,6.422301059
2487658338,Shreya Poly Clinic,12.9729127,77.5394723,Phone number not available,5.877032049
2514705828,Anurag Medical Center,12.9612829,77.5271683,Phone number not available,7.305369218
2533566686,United Medical lab,13.0007683,77.6132902,Phone number not available,3.848331872
2554302512,Pragathi Ayurvedic Center,12.9843701,77.555666,Phone number not available,4.348174969
2623054534,Srujana Hospital,12.8413465,77.6475451,+91 80 49152339,15.64606314
2623332318,Narayana Hrudayalaya Dental Clinic,12.9231571,77.6728066,Phone number not available,10.14227298
2696699678,Gunam Super Speciality Hospital,12.7295695,77.8246469,Phone number not available,36.78217467
2720476857,Vatsalya Chidren's Clinic,12.8948505,77.6109105,Phone number not available,8.768189673
2720498311,Kottakkal Arya Vaidya Sala,12.9002599,77.6271003,Phone number not available,8.74983012
2914260121,Sharavathi Hospitals (P) Ltd.,12.9623406,77.5342853,Phone number not available,6.525296684
2932851733,"Dr.Agarwal's Eye Hospital Ltd, Padmanabha Nagar",12.9169288,77.5592568,Phone number not available,7.162056722
2984295033,Shraddha Eye Care,12.9184617,77.5555842,Phone number not available,7.236694842
3004275434,"Vasan Eye Care Hospital, Rajarajeswari Nagar",12.931334,77.5154779,Phone number not available,9.602075482
3016090364,Cloud Nine Fertility,12.9055088,77.5858347,080 4350 0123,7.431409826
3024967812,Oncology India,12.9061749,77.5847567,Phone number not available,7.372283377
3037310855,Aikya Healthcare,12.8827229,77.5466715,Phone number not available,11.14922186
3100475907,Konanakunte Government Hospital,12.8840897,77.5664029,Phone number not available,10.20238984
3120578217,Anand Clinic,12.8002465,77.5088745,Phone number not available,21.1861859
3120578218,Sanjeevani Clinic,12.8011096,77.5084507,Phone number not available,21.11981556
3120578551,Government Hospital,12.8047243,77.5109371,Phone number not available,20.64055257
3120590213,Rajarajeshwari Hospital and Medical College,12.896052,77.4618775,Phone number not available,16.5898613
3120594392,Rajarajeshwari Dental College,12.9069608,77.418604,Phone number not available,20.30288561
3268435578,Cloud Nine Hospital,12.987917,77.7319724,+91 80 6799 9999,15.08782236
3270010723,Telerad Rx Dx Health Care Whitefield,12.9768424,77.7103746,+91-80-49261111;+91-80-40187588,12.65435386
3334324971,Oxford Medical College Hospital,12.7873292,77.7571223,Phone number not available,27.11110385
3370028968,Motherhood Hospital(Unit Of Rhea Healthcare Pvt Ltd),12.9784409,77.6375845,Phone number not available,4.810442799
3370244392,Respiratory and womens health clinic.,12.9762645,77.6376528,Phone number not available,4.787226243
3370279044,Rashmi Hospital,12.9766951,77.6362278,Phone number not available,4.638895683
3370453173,Netradama Eye Hospital,12.9734836,77.6357281,Phone number not available,4.557438437
3394753831,Sree Venkateshwara Speciality Hospital,12.9425246,77.6025303,Phone number not available,3.403669407
3400223539,Leela Hospital and Diagnostic Center,13.0002667,77.5694894,Phone number not available,4.102511305
3400223541,Dr. Rajkumar Blood Bank,12.968031,77.5878222,9876453647,0.768592378
3477797688,Nelivigi Eye Hospital,12.9243274,77.6739574,Phone number not available,10.17965592
3541798347,Sanghi Medical Centre (P) Ltd,12.9517397,77.6994832,Phone number not available,11.67998599
3555393844,"Sri Sai Krupa Hospital, Bengaluru Urban",13.0294181,77.5593857,Phone number not available,7.397775503
3556103531,ALDOS Medical Service Pvt LTD,12.9826672,77.6381036,Phone number not available,4.958074202
3607116665,Government Hospital,12.8870605,77.603414,Phone number not available,9.492281985
3607404261,Rajashree Granthim hospital,12.8893134,77.602422,Phone number not available,9.231731034
3633415798,Sri Laxmi Hospital,12.8504718,77.6553058,Phone number not available,15.06295224
3671907239,Wipro First Aid Clinic,12.8377272,77.6584571,Phone number not available,16.48787223
3710210170,Krishna Nursing Home,12.9474222,77.5986921,Phone number not available,2.775043902
3714125744,"Shifa Hospital, Bengaluru Urban",12.9900105,77.5988107,Phone number not available,2.088546089
3719549886,Milann Fertility Center,12.9159249,77.5856011,Phone number not available,6.28572334
3725710400,Gift IVF center,12.962951,77.6418711,Phone number not available,5.313785766
3773028057,HCG Cancer Hospital,12.9603157,77.5930493,Phone number not available,1.290043749
3922280181,Health Care Global,12.9584755,77.5919279,Phone number not available,1.505036635
4097027897,Gulecha Dental Care,12.9570466,77.5656754,Phone number not available,3.4568434
4189843307,Rajbal Skin Clinic,13.0206063,77.6445361,Phone number not available,7.72457709
4203857493,Prashanth Hospital,12.9066637,77.6287463,Phone number not available,8.188080936
4263313808,Dianova Diabetes Center and Hospital,13.0147612,77.6335463,Phone number not available,6.430631761
4286285517,Ameena Medical centre,12.9777082,77.6323407,Phone number not available,4.236469736
4322812542,Dr.Agarwal Eye & Dental Hospital,12.9700356,77.6362439,Phone number not available,4.614616903
4325331196,SRL Diagnostics,12.9599306,77.7160447,Phone number not available,13.32389641
4343881190,Dr Raos Maternity Hospital,12.9850421,77.5460481,Phone number not available,5.366106018
4349307192,Sagar Chandramma Hospitals,12.9485535,77.5748248,Phone number not available,3.304963156
4349443891,Specialist Hospital,13.0169826,77.6432959,Phone number not available,7.348821912
4360019301,Homecare International,12.9166705,77.5834214,Phone number not available,6.241439716
4386507095,Vignesh Lab and Diagnostics,13.0267226,77.6041132,Phone number not available,6.199519191
4392383890,Apollo Cradle,12.9368104,77.6206345,Phone number not available,4.872684791
4406333893,Shiva Kumaraswamy Building,12.9717049,77.5493718,Phone number not available,4.803333266
4440769883,Myo Medex - Ace Speciality Clinic,12.8615976,77.5999324,Phone number not available,12.28365344
4440829279,Stanford Speciality Hospital,12.911533,77.6764094,080 6566 6689,11.19810526
4440931106,Dr Mohan Nursing Home,12.9124371,77.6813917,-42119073,11.57706173
4440939217,Sparsh Clinic,12.9072384,77.6755805,+91-99000 19567,11.42084367
4440946384,Raksha Orthopaedic And Multi Speciality Centre,12.9041502,77.6741043,+91-74115 27777,11.51863726
4440987271,Narayana Nethralaya,12.8750879,77.5950098,Phone number not available,10.76595026
4441670838,Naadi Ayurveda Center,12.9121008,77.6820003,-9980015998,11.65256552
4441681632,Kottakkal Arya Vaidya Sala,12.9217604,77.6618321,+91-80 6450 4434,9.251891536
4441938603,The Family Doctor & The Family Pharma,12.9122002,77.6818637,+91-80 2574 6204,11.63410028
4441961605,Life Care Hospital,12.9194712,77.6130111,+91-80 2684 6677,6.194047992
4442502224,Dr. Levine Memorial Hospital,12.9188944,77.6706512,+91-80 2574 7365,10.21172967
4442511855,Bhagavathi Hospitals Private Limited,12.9161259,77.6311505,+91-80 4124 5860,7.411721124
4442516055,Gunasheela Hospitals,12.9250105,77.6278708,+91-80 - 4646 2626,6.395054182
4443301971,NRS Medical & Dental Specialists Centre,12.9151071,77.5624888,8026696054,7.163834698
4444988626,Anurag Medical Centre,12.9060641,77.6049776,Phone number not available,7.42193719
4444989840,Sarvodaya Hospital,12.9390944,77.5619057,098440 74946,5.017682749
4445139977,Indianova Healthcare Pvt Ltd,12.9703581,77.63022,+9197390 07505,3.960931916
4445163720,Sky Diagnostic Centre kumbena agrahara,12.9977711,77.7548105,8033051529,17.69203003
4445167354,Dr Rachna - Homeopathy,12.9179831,77.6691258,+9195909 10963,10.13680163
4445179843,Regal Hospital,13.0830463,77.6347174,8033082383,13.13345149
4445183934,Thyrocare,13.0158543,77.7033173,080 6568 0365,12.84311123
4445213681,Welnext,12.9240063,77.6545058,+9196960 00222,8.472385385
4445356902,Employees State Insurance Dispensary,12.966771,77.5349228,080 2845 2785,6.394486028
4445397516,Dr Solankis Eye Hospital,12.9951627,77.5738144,080 2356 2211,3.366525882
4445430292,Sri Sanjeevini Cold Laser Therapy,13.0053923,77.5713352,080663 79862,4.443139787
4445578787,Dr. Bhargavi Reddy Women & Children Hospital,12.975403,77.6470594,080 2525 6666,5.794943542
4445586944,Axon Speciality Hospital,12.973892,77.6460904,080 4334 6333,5.681177194
4445660067,Bright Children's Clinic,12.9891818,77.689783,+9178994 22511,10.58679243
4445886952,Sanjeevini Children & Women Clinic,13.0316481,77.6023154,080 2292 4422,6.7089379
4445955282,Procare Hospital,13.0203944,77.6512682,080 4162 0620,8.245085983
4445965958,Life Care Hospital,12.9239305,77.6132696,080 2684 6677,5.740087498
4445973784,Parimala Health Care,12.9003193,77.6008061,080 2658 3117,7.996579581
4445986377,"Sriram Hospital, Bangalore",13.0087504,77.6939806,080 2561 0988,11.61229693
4445998037,K R Puram Super Speciality Hospital,13.0110115,77.6935975,080 2561 7799,11.66480818
4446018021,Maithri Nursing Home,13.0048316,77.7035666,9.18026E+11,12.45453751
4446285519,Medic Star Hospital,12.9876871,77.6093097,080 2554 1337,2.437688115
4446289881,Hsis Gosha Hospital,12.9856985,77.6058578,"""080 2286 6529",2.022265321
4446300155,Santosh Hospital,12.9959413,77.6082575,080 2536 7706,3.103926542
4446312027,Hospital,12.9914123,77.6117329,+9193411 44150,2.91980513
4446322688,Keva Ayurveda Health Care Pvt Ltd,12.9127062,77.6201668,080508 01515,7.179834132
4446329807,Ayurvaid Hospital,12.9552696,77.6428508,080 4092 5555,5.637919193
4446341278,H B S Hospital,12.9891941,77.6037864,080 2554 1321,2.211880282
4446346449,St. Martha's Heart Centre,12.9705436,77.5834769,+9195380 43453,1.117970712
4446502570,Sumathi Nursing and Maternity Home,13.0325717,77.5582602,+9180 2337 2762,7.762534226
4446518811,Desai Nursing Home,12.9863736,77.5793154,+9180 2226 0307,2.240416948
4446664412,Fortis Hospital,12.9881648,77.5548179,080-2300-4444,4.584805268
4446826362,Healing Earth Multispeciality Ayurveda Hospital,12.9165359,77.6361865,080674 75757,7.687512045
4446833350,Global Ayurveda Multispeciality Hospital,12.9165795,77.6362187,080674 75757,7.685721467
4446840727,Brahmi Ayurvedic Center,12.8830054,77.6073285,+9190086 54547,9.99437043
4446849884,Fj Merrit Hydrotherapy And Wellness,12.9344224,77.6299785,080 4095 1282,5.729043623
4446852004,Vedam Ayurveda Multispeciality Hospital,12.9175511,77.6039486,080 4120 2911,6.144529458
4446857201,Ayur jagruti,12.9667253,77.6378289,+9196633 81398,4.816231906
4446876066,Herbocare Hospital Pvt,13.0204424,77.6440607,+9174064 30003,7.675108115
4446881168,""" NRS Medical & Dental Specialists Centre""",12.9378359,77.5573329,080-26696054,5.466063699
4446887432,Tele Rad RX DX Health care Pvt Ltd,12.9992982,77.7575636,080 4926 1111,18.0143131
4446889930,Spring Leaf Health Care Pvt Ltd,12.8526731,77.6676459,080673 45000,15.49165577
4446891375,Chiranjeevi Hospital & Maternity Home,12.9386994,77.5518394,080 2691 7676,5.84859508
4446893667,"Vinayaka Hospital, Hanumantha Nagar",12.9373748,77.5494778,080 2679 6167,6.14024651
4446894388,Diavista Diabetes & Multispeciality Hospital,12.9354293,77.5477956,080 4096 9392,6.418018889
4446897063,Meenakshi Hospital,12.9420715,77.553698,9.18027E+11,5.458133339
4446899253,Medi-Tech Multi Speciality Hospital,12.9408667,77.5603657,080 2660 2910,4.995589311
4446900247,Kusuma Hospital,12.9420124,77.5506918,080 2642 1177,5.72408919
4446907220,Ring Road Hospital,12.9274553,77.5516293,080 2679 7040,6.723745708
4446907712,Pulse Multispecialty Hospital,12.9389007,77.5438808,080 2672 4466,6.527585238
4446909294,Surya Galaxy Hospital,12.9316792,77.5450887,080 2642 1051,6.910264576
4446915481,Wellness Ever,12.9593576,77.7461682,095919 89220,16.58021285
4446919794,Hair Loss Treatment in Bangalore - Hairline International,12.9566858,77.7419283,091488 74972,16.15094927
4446924573,Surya Diagnostics and Health Services,12.9242825,77.6170883,080 2552 6667,5.870181467
4446927760,Nimi dental bangalore,13.0090882,77.6918556,080 2561 9979,11.41070642
4446938197,New Life Hospital bangalore,12.9967611,77.7591252,080 4954 0540,18.13605038
4447003711,Ayushman Ayurvedic therapy centre,12.9946163,77.6023871,+91 95356 68668,2.695615617
4447009524,Pristine Hospital,12.9984229,77.5403887,+9180 4135 4444,6.485689341
4447013195,Sri Vinayaka Hospital,12.9575029,77.5276466,080 2339 8062,7.334417303
4447015118,Shathayu Ayurveda Wellness Centre,12.9573897,77.5276882,+91 8040999110,7.332779214
4447020601,Shri Vishnu Ent Speciality Center,13.0226079,77.4748015,+91 80 2672 4211,14.06212443
4447072265,Hospital Sharavathi,12.9594984,77.5275515,9.18023E+11,7.299293541
4447072624,Arogya Kendra,12.9735891,77.5443283,9.18023E+11,5.353060039
4447073029,The Family Doctor Malleswaram,13.0029689,77.5526666,+9180 2337 6262,5.630434976
4447075424,Venkat Charmalaya,12.9644231,77.5333324,9.18023E+11,6.593988629
4447076167,V Care Medical Systems P Ltd,12.9787049,77.5403581,9.18023E+11,5.829222127
4447076314,Manasa Hospital,12.968821,77.5246297,9.18023E+11,7.492141644
4447079172,Saikrupa Hospital For Women's and Surgical Centre,12.9691657,77.5351921,+91080 2311 9592,6.347077014
4447082866,Cutis Academy of Cutaneous Sciences,12.9768117,77.5449094,080 4115 9049,5.314899453
4447083784,Shreya Hearing Clinic,12.9621516,77.533401,""" 080 2318 0012""",6.623266815
4447087999,Acura Speciality Hospital,12.9353208,77.6205504,+9180 4110 5151,5.000997694
4447088630,Prasad Nethralaya,12.9603312,77.5300796,080 2339 2807,7.012885253
4447097087,Vijayanagar Global Hospital,12.9717905,77.5372864,080 4240 8200,6.112836716
4447100075,Blossom Infertility Center,12.9649703,77.5389842,+91 99009 99116,5.978798851
4447105332,Padmashree Nursing Home and Maternity Home,12.958321,77.5350434,080 2311 8372,6.532925541
4447142720,Dhanush Hospital,12.9706209,77.5151893,080 2318 5544,8.508415218
4447155158,"S K Hospital, Bengaluru Urban",12.957572,77.5184436,080 2321 3699,8.308986199
4447156427,"Green City Hospital, Bengaluru Urban",12.9062193,77.580682,080 2653 6222,7.438372045
4447171840,The Homoeo World,12.9947201,77.5715879,080 2346 1995,3.489859904
4447213952,Modern Family Doctor Pvt Ltd,12.9698405,77.5327211,080 2335 2200,6.611501292
4447273084,Oxford Hospital,12.9312101,77.5756907,080 2245 2500,4.927466804
4447308983,Oxford Hospital,12.8584183,77.6653346,080 2245 2500,14.81576372
4447316956,R R Hospital & Trauma Centre,12.9059465,77.5904192,080 2671 8785,7.342308155
4447383325,M N Speciality Clinic,12.9039905,77.5859569,080 2653 0121,7.597673787
4447972412,Prashanth Hospital,12.9067129,77.6265085,080 4150 3714,8.073536879
4447978869,Parimala Health Care,12.9009278,77.5986641,080 2658 3117,7.910063866
4447985903,Springleaf Hospital,12.853228,77.6653506,080673 45000,15.31121744
4448000087,Sri Ram Hospital,13.0096231,77.6924713,080 2561 0988,11.49446855
4448075597,Vijay Diagnostic Centre,12.9458746,77.5877756,080 2668 4260,2.964246723
4448118314,Dr Lal PathLabs,12.924274,77.5680927,080 4091 6014,5.978780212
4448128750,Dr Desai's Micro Lab,12.9556129,77.7175491,9.18034E+11,13.54203468
4448133411,Welnext,12.9242869,77.6532853,+9196960 00222,8.350110588
4456339090,Sri Sai Ram Hospital,12.8943049,77.5682821,Phone number not available,9.057238656
4484938764,Tamara Hospital & IVF Centre,13.0044499,77.5530755,+91 80 2337 0780,5.698653274
4509817152,ChanRe Rheumatology and Immunology Center and Research,12.995573,77.5354215,Phone number not available,6.841289599
4518518893,Anupama Hospital,12.9838763,77.4788534,Phone number not available,12.51521622
4528847591,Deepa Hospital,13.0120509,77.6998816,Phone number not available,12.34052969
4533735695,"Manasa Hospital, Vijayanagar",12.9709463,77.5451059,Phone number not available,5.266601498
4544234694,Agarahara Government Hospital,13.0957329,77.6273067,Phone number not available,14.24274318
4547191103,Nagarathna Hospital,12.9056092,77.5426964,Phone number not available,9.213367936
4552286367,Ramana Rao's clinic,13.0130826,77.5761449,Phone number not available,4.958609135
4577045761,Government Maternity Home,12.9983402,77.6200927,Phone number not available,4.101403859
4578753189,Lucid Medical Diagnostics,12.9306876,77.5794541,8049364444,4.835654262
4597833389,Cauvery Orthopaedic Centre,12.9984887,77.5504219,Phone number not available,5.543472326
4609603646,"Apollo Bengaluru Cradle Limited, Jayanagar",12.9168014,77.5851878,Phone number not available,6.195740489
4623723101,"Nethradhama Superspeciality Eye Hospital, Rajajinagar",12.997613,77.5509423,Phone number not available,5.444100572
4680014207,NIMHANS - Ashwini Block,12.9397588,77.59445,Phone number not available,3.574862354
4689872196,Sathya Sai Lake Side Ortho Hospital,13.0215807,77.7128053,Phone number not available,14.03733645
4690537789,Comfort Multispeciality Hospital,12.9817167,77.6800412,Phone number not available,9.418976145
4729472422,National Institute of Mental Health and Neuro Sciences,12.9400669,77.5931597,Phone number not available,3.540163412
4729478014,NBRC(National Brain Research Center),12.9404277,77.5988406,Phone number not available,3.543618606
4782423379,Dr. Roshni's Tooth Planet Dental Clinic,12.9876335,77.6851595,Phone number not available,10.0632276
4840185928,Cambridge Hospital,12.9716236,77.6273835,Phone number not available,3.649983272
4843099634,Nimhan's Hospital,12.9395684,77.5946463,Phone number not available,3.596572066
4843104321,Respigen healthcare,12.9555357,77.5918347,Phone number not available,1.830818838
4844865057,Doctor's diagnostics Centre,13.014746,77.6357881,Phone number not available,6.594937005
4849107926,Wellspring,13.0080001,77.5837482,Phone number not available,4.156447198
5106809421,Cloudnine Hospital Pvt. Ltd.,12.9597752,77.6569127,Phone number not available,6.981144494
5112187604,Subramanium Medicine Store,13.0090912,77.656317,Phone number not available,7.94553715
5112191947,Chaya Super Speciality Hospital,13.0104342,77.6583242,Phone number not available,8.208958348
5157373807,Altius Hospital,12.9849537,77.5569222,Phone number not available,4.241154109
5174903787,Bangalore Diabetes Hospital,12.9920434,77.5966493,Phone number not available,2.262525691
5174994725,NU Hospitals,13.011845,77.5526061,Phone number not available,6.289115514
5234723863,V. S. Achar Multispeciality Hospital,12.9472091,77.5966914,Phone number not available,2.764572808
5234739990,Nature Cure Hospital,12.933223,77.5842632,+91 80 2663 1945;+91 80 2244 6035,4.420595432
5259407821,Government Hospital,12.966103,77.5549647,Phone number not available,4.246508245
5265649228,"Emergency Block , NIMHANS",12.9403849,77.5945391,Phone number not available,3.505498716
5277512112,Usha Vikranth Diagnostic Center and Hospital,12.9138086,77.5273633,Phone number not available,9.664628346
5297145822,Nethradhama Superspeciality Eye Hospital,12.9719805,77.6474011,Phone number not available,5.818910114
5356991434,Kannamangala Primary Health Center,13.0308849,77.7599564,Phone number not available,19.1698842
5423028221,Telerad RXDX Kadugodi,13.0028637,77.7569157,Phone number not available,18.01654765
5520252375,Care Health,13.0552027,77.6028234,Phone number not available,9.315424642
5716797221,Sri Shankara Cancer Hospital And Research Centre (A Service Unit Of Sscf),12.9542049,77.5713429,080-26981000,3.12100252
5825292845,Vathsalya Speciality Hospital,12.9939752,77.5391801,Phone number not available,6.397051399
5862574185,Lakeside Medical Centre and Hospital,12.9878631,77.6177434,Phone number not available,3.152413889
5879132707,Maruthi Hospital,12.9677607,77.5413282,Phone number not available,5.693546767
5915195092,Aparna Hospital,12.9362087,77.616947,Phone number not available,4.700711485
5915409411,Apollo Spectra Hospitals,12.9338175,77.6201615,Phone number not available,5.11412912
5915906204,Sankeerthana Hospital and Fertility Center,12.9256013,77.6359638,Phone number not available,6.890595308
5959076193,Jayashree Multi Specilaity Hospital,12.881611,77.6260763,Phone number not available,10.63518333
5966255497,Bangalore Prime Hospital,13.066842,77.6390545,Phone number not available,11.64451225
5983331355,CyteCare,13.118638,77.6078781,Phone number not available,16.38864493
5998273501,Ganga Speciality Hospital,12.7096503,77.7014511,Phone number not available,31.41364524
6124618183,Shiva Vision Care,12.9366526,77.6277125,Phone number not available,5.380149378
6312931439,Agarwal Eye Hospital,12.9659249,77.7494099,Phone number not available,16.88557708
6380900077,Medical Center,13.0711049,77.5781394,Phone number not available,11.15914741
6385321492,apollo medical shop,12.8437851,77.6659275,Phone number not available,16.25497815
6393830707,Sujatha Hospital,12.9781293,77.6372391,Phone number not available,4.768296934
6464656077,Patil Hospital,13.011214,77.6979598,080 2561 3891,12.11276614
6502980174,The Eye Surgical Centre,12.9821954,77.5493143,Phone number not available,4.943785535
6630713206,Omega Multispeciality Hospital,13.1001877,77.5813432,Phone number not available,14.32761005
6779119335,Venus Bone & Joint Centre,13.0665572,77.59647,Phone number not available,10.52967755
6807542967,Lourdes High School,13.0182102,77.540004,Phone number not available,7.769416671
6807551928,Boregowda Lingamma Hospital,13.016705,77.539386,Phone number not available,7.710506452
6807551937,Kanva Hospital,13.0175606,77.5394308,Phone number not available,7.768636429
6809801083,Kengeri Upanagara Government Hospital,12.9156896,77.4808065,Phone number not available,13.73835153
6852266953,Yogananda Multi Speciality Hospital,12.9180137,77.5594723,Phone number not available,7.047055041
6855409793,Dr. Agrawal's Eye Hospital,12.9998982,77.5501121,Phone number not available,5.656607565
6892888126,A A Hospital,12.6988491,77.8108331,Phone number not available,38.41889191
6926159614,Santhi Hospital & Santhi Jananam Fertility Centre Hosur,12.7488623,77.8058879,Phone number not available,33.82574107
6928806172,Surya Multispeciality Hospitals Ind Pvt Ltd,12.7329337,77.8259093,Phone number not available,36.60288965
6932152153,Velnath Maternity Home,12.7353452,77.8261929,Phone number not available,36.4298767
6932414107,"Dr Agarwals Eye Hospital Ltd, Hosur",12.7405888,77.8205797,Phone number not available,35.58771969
6934271010,Ananda Ashramam Private Hospital,12.698758,77.8118142,Phone number not available,38.49215414
6936359951,"Lakshmi Hospital, Krishnagiri",12.7328212,77.8254358,Phone number not available,36.57670022
6936492063,"Vijay Hospital, Krishnagiri",12.7350679,77.825517,Phone number not available,36.40153098
6936696212,Uma Kumar Hospital,12.7362537,77.8243053,Phone number not available,36.21541318
6937748988,Ashok Hospital,12.9948905,77.5347984,Phone number not available,6.875084497
6937814427,Balaji Hospital and Gastroenterology Center,12.9376087,77.5666429,Phone number not available,4.809983488
6937844482,Abhay Hospital,12.9517481,77.4939886,Phone number not available,11.03480043
6937890455,Chaitanya Hospital,13.0237316,77.5941463,Phone number not available,5.763613804
6937892396,Dr. B. Venkatasubbarao Memorial Hospital,12.9981979,77.568151,Phone number not available,4.026691175
6937898160,"South City Hospital, Bengaluru Urban",12.9497745,77.5802779,Phone number not available,2.858008472
6937956957,M S Ramaiah Harsha Hospital,13.0856858,77.4127015,Phone number not available,23.33574653
6938005237,"Sri Sai Hospital, Bengaluru Urban",13.0370143,77.6238732,Phone number not available,7.944169641
6938414183,Jupiter Hospital And Institute Of Vascular Surgery,12.9998457,77.5663653,Phone number not available,4.29278502
6938540502,"Shreyas Hospital, Bengaluru Urban",12.9829857,77.5309655,Phone number not available,6.908449537
6938544594,Rajalakshmi Multispeciality Hospital,12.9168151,77.5795484,Phone number not available,6.314232001
6938547661,Ashirwad Hospital,13.0289685,77.6045479,Phone number not available,6.453651832
6938637677,N.D.R. Hospital,13.0965172,77.5787745,Phone number not available,13.95081425
6938637678,N.R.V Hospital,13.1631138,77.6293449,Phone number not available,21.60970427
6938653696,Asha Kiran Children & Women Health Care Centre,13.0263529,77.5933929,Phone number not available,6.054977641
6938653697,Kamal Maternity and Surgical Nursing Home,13.0959727,77.5885404,Phone number not available,13.80757256
6938685761,Krishnadevaraya Hospital And Research Centre,13.1498837,77.608248,Phone number not available,19.8535211
6938689694,Y K Hospital,12.7796608,77.6347804,Phone number not available,21.83493151
6938690199,"Mission Hospital, Bengaluru Rural",13.0744104,77.7835518,Phone number not available,23.51497094
6938690597,Radha Maternity and Surgical Hospital,12.9690441,77.5688544,Phone number not available,2.710881012
6938690598,"Hitech Kidney Stone Hospital, Bengaluru Urban",12.9878104,77.5809833,Phone number not available,2.242437955
6938690600,Sri Dhavantari Ayurveda Hoapital,12.9822186,77.5599374,Phone number not available,3.834054561
6938690603,Vaidyam Hospital,12.9845512,77.5528322,Phone number not available,4.646287726
6938690604,Suresh Hospital - Bangalore,12.9897745,77.5551014,Phone number not available,4.630540462
6938690614,Lakshmi Maternity Home,13.0058226,77.5694512,Phone number not available,4.596861202
6938690621,Manjunatha Maternity Home and Surgical Centre,13.0077265,77.5696993,Phone number not available,4.7573597
6938690626,Samprathi Eye Hospital And Squint Centre,12.9932806,77.580691,Phone number not available,2.763865971
6938690629,Shankara Nethralaya Eye Hospital,13.0089953,77.5406188,Phone number not available,7.077538447
6938692472,Supra South City Hospital,12.8919509,77.5799654,Phone number not available,9.01368469
6938693547,"Indira Hospital, Bengaluru Urban",12.7893233,77.6272005,Phone number not available,20.6238155
6938695148,ChanRe Rheumatology and Immunology Center and Research,12.9992083,77.550269,Phone number not available,5.60046512
6938695149,Chandana Hospital,12.9579894,77.5114394,Phone number not available,9.046992466
6938695174,"J M J Hospital, Bengaluru Urban",13.0398217,77.6230843,Phone number not available,8.196101855
6938695175,G E F Eye Hospital,13.0672067,77.7802707,Phone number not available,22.82215981
6938708338,Sri Krishna Hospital,12.9215013,77.5655432,Phone number not available,6.38092129
6938717990,Malleswaram Eye Day Care Hospital - Bengalore,12.9966677,77.5716037,Phone number not available,3.649222641
6938717991,Mahaveer Eye Hospital Private Limited,12.9933551,77.5729595,Phone number not available,3.277476816
6938717993,Bilva Hospital,12.9989833,77.5802015,Phone number not available,3.347899166
6938727983,"Nethradhama Superspeciality Eye Hospital, Jayanagar",12.9256932,77.5773127,Phone number not available,5.436201418
6938741378,Dr Agarwals Eye Hospital Ltd,12.9122295,77.5994906,Phone number not available,6.66466593
6938758526,Sri Venkateshwara Hospitals,12.926471,77.6167399,Phone number not available,5.634824247
6938759412,"Nova Specialty Surgery Center, Koramangala",12.9339097,77.620208,Phone number not available,5.10847488
6938762135,Fosa Humanitarian Hospital,12.8130672,77.5825109,Phone number not available,17.70299416
6938772336,C.S. Hospital,12.9118831,77.5528805,Phone number not available,8.006561845
6938774143,Sri Kalabyraveshwara Swamy Ayurvedic Medical College hospital,12.9650437,77.5435022,Phone number not available,5.492539518
6938775801,"Anugraha Hospital, Vijayanagar",12.9765645,77.5455876,Phone number not available,5.239016677
6938775815,Apple Hospital,13.103924,77.5837862,Phone number not available,14.7196289
6938775840,Amar Hospital,12.9711822,77.5781228,Phone number not available,1.689791246
6938775845,Retina Institute Of Karnataka,12.95727,77.5640827,Phone number not available,3.598097713
6938775846,The Venlakh Hospital,12.9572978,77.5644522,Phone number not available,3.561019828
6938775854,Vishwabharathi Hospital Pvt. Ltd,12.9406698,77.5644596,Phone number not available,4.70098996
6938775855,"Sunetra Eye Hospital, Bengaluru Urban",12.9404548,77.5578493,Phone number not available,5.226711455
6938775856,Sri Vivekananda Sevashrama,12.9253299,77.5711893,Phone number not available,5.724176718
6938775857,"Saraswathi Hospital, Bengaluru Urban",12.9276382,77.568896,Phone number not available,5.607850696
6938777900,Narayana Multispeciality Hospital,12.9894936,77.7337486,Phone number not available,15.30032984
6938777910,National Institute of Mental Health and Neuro Sciences,12.9386321,77.5944105,Phone number not available,3.700022852
6938777925,Netraspandana Healthcare and Research Pvt. Ltd,12.9291283,77.5461361,Phone number not available,7.013321918
6938777940,North City CT Scan,13.0945892,77.594104,Phone number not available,13.64248679
6938777945,Nu Trust,12.9176216,77.5550705,Phone number not available,7.345180823
6938777957,"Padmavathi Hospital, Bengaluru Urban",12.9817311,77.5333714,Phone number not available,6.62768775
6938777962,Panchamukhi Specialityu Hospital,12.9957177,77.5031644,Phone number not available,10.16093809
6938779562,Sri Lakshmi Multi Speciality Hospital,12.9881868,77.5087273,Phone number not available,9.383527299
6938781514,K C Raju Multi Speciality Hospital,13.0090828,77.6235594,Phone number not available,5.249875544
6938783140,Ring Road Hospital,12.9278657,77.5519297,Phone number not available,6.668132069
6938787285,"Vasan Eye Care Hospital, Bannergatta Road",12.8822813,77.5957945,Phone number not available,9.967729787
6938790393,Varalakshmi Hospital,12.924624,77.6170966,Phone number not available,5.836343234
6938794412,Kala Hospital,13.0223669,77.5587304,Phone number not available,6.770964537
6938824058,Sri Raghava Childrens And General Hospital,12.7804299,77.7707067,Phone number not available,28.66074436
6938863247,"Shekhar Hospital, Jayanagar",12.917589,77.5948906,Phone number not available,6.040485791
6938864290,Rajalakshmi Hospital,13.0842019,77.5308891,Phone number not available,14.2209737
6938868529,"Sharada Hospital, Bengaluru Rural",13.0966204,77.3972158,Phone number not available,25.40444862
6938876210,"Vasan Eye Care Hospital, Sarakki",12.9103393,77.5732398,Phone number not available,7.195389512
6938889541,Lions Airport City Hospital,12.9551501,77.7051643,Phone number not available,12.22112966
6938896388,Mahanth Hospital,12.9079615,77.6235715,Phone number not available,7.811943396
6938912267,Sunayana Eye Hospital,12.9255233,77.5937748,Phone number not available,5.156860125
6938948962,"Lakshmi Hospital, Ganganagar",13.024837,77.592089,Phone number not available,5.88891312
6938949273,Lokhande S Hospital,13.0186045,77.6479433,Phone number not available,7.842878307
6938988776,Dr. T.V.Ramesh Piles Hospital,13.0250141,77.5856289,Phone number not available,5.970406154
6938995621,Dr Kamini Rao Hospital(A Unit Of Bacc Health Care Pvt Ltd),12.9163994,77.5847384,Phone number not available,6.247331547
6939048258,HCG,12.9605309,77.592659,Phone number not available,1.269208908
6939074293,Dr Ambedkar Medical College Hospital,13.0218188,77.613084,Phone number not available,5.934748888
6939075872,"Supriya Hospital, Bengaluru Urban",12.9929043,77.5588015,Phone number not available,4.444487991
6939076687,Manju Sree Hospital,13.0212406,77.6070739,Phone number not available,5.674548257
6939108450,Raj Mahal Vilas Hospital,13.0322819,77.5770459,Phone number not available,6.952389527
6939253041,Devi Eye Hospital,12.9412109,77.6238987,Phone number not available,4.727990773
6939257334,Essential Hospital,12.974865,77.5096312,Phone number not available,9.115374943
6939294579,"Prasad Hospital, Bengaluru Rural",13.099244,77.3918822,Phone number not available,26.04780451
6939311791,Shree Vijayalakshmi Hospital and Trauma Centre,13.0373572,77.6409059,Phone number not available,8.89573264
6939319393,Kalasa Maternity Home,12.9548208,77.5672585,Phone number not available,3.437467571
6939438895,Sidvin Hospital Pvt Ltd,12.982442,77.5493681,Phone number not available,4.944541193
6939444286,Abhilash Hospital And Sara Rehabilitation Centre,12.9246384,77.5509238,Phone number not available,7.007566908
6939445234,"HCG, Koramangala",12.9343279,77.6228848,Phone number not available,5.239887968
6939522367,"Ganesh Nursing Home, Bengaluru Urban",12.8957636,77.6330289,Phone number not available,9.478364045
6939562670,Kavya Hospital,12.8987442,77.6263127,Phone number not available,8.869190271
6939582677,Sg Hospital,12.9275311,77.5457901,Phone number not available,7.162098972
6939617697,Yadiyuru Maternity Hospital,12.9271494,77.5766194,Phone number not available,5.30914996
6939699617,Place Guttahalli Maternity Home,12.9988238,77.5819892,Phone number not available,3.251590169
6939719899,"Phoenix Hospital, Bengaluru Urban",12.9608027,77.5911717,Phone number not available,1.264010706
6944095844,"Shreya Hospital, Bengaluru Rural",12.9215104,77.4832503,Phone number not available,13.2157868
6944095845,"Vasan Eye Care Hospital, Banaswadi",13.0241341,77.6335546,Phone number not available,7.237446291
6944096856,Sri Annapoorneshwari Hospital,12.9255704,77.4857756,Phone number not available,12.77980478
6944097317,Sarathi Putta Hospital,13.3067986,77.5421309,Phone number not available,37.65537254
6944105329,"Vasan Eye Care Hospital, R.T.Nagar",13.0251833,77.5920609,Phone number not available,5.927493545
6944128588,Kims Hospital and Research Centre,12.9563016,77.5747874,Phone number not available,2.68483285
6944138103,"Karthik Hospital, Bengaluru Urban",12.9489406,77.5949925,Phone number not available,2.556807774
6944138105,Bangalore Kidney Stones Hospital,12.9670215,77.5892667,7654325637,0.724594639
6944143695,Sree Lakshmi Hospital,12.9825937,77.6814736,Phone number not available,9.584747501
6944176079,"Prashanthi Hospital, Ramanagara",12.7975651,77.3844726,Phone number not available,29.8350657
6944186495,"Atreya Ayurvedic Medical College, Hospital and Research Centre",13.2984099,77.5085208,Phone number not available,37.45957234
6944201468,"Abhaya Eye Hospital, Super Speciality Eye Care Centre",12.9271131,77.5471291,Phone number not available,7.090192743
6944231454,Mediscope Hospital Private Limited,12.9994472,77.6162584,Phone number not available,3.91878824
6944231456,Medi Derma Hospital,13.0555559,77.6517145,Phone number not available,11.22646135
6944231467,Mathru Shree Hospital,13.093893,77.39299,Phone number not available,25.6275023
6944231472,Mathru Hospital - Bangalore,12.9110975,77.4806057,Phone number not available,13.9972056
6944239588,Manjushree Speciality Hospital,12.9825845,77.6124926,Phone number not available,2.357517999
6944256035,Namratha Nursing And Maternity Home,13.0045747,77.5432728,Phone number not available,6.561526558
6944256036,The Pulse Multi Speciality Hospital,12.9424801,77.5473283,Phone number not available,5.996031049
6944256037,Popular Hospital,12.9514854,77.5703564,Phone number not available,3.398754888
6944256049,Rajankunte Hospital,13.1731008,77.5640868,Phone number not available,22.60126508
6944269353,Gavipuramguttahalli Maternity Home,12.9526505,77.5548633,Phone number not available,4.72145669
6944274074,Ayurseva Hospital,13.0139247,77.6640775,Phone number not available,8.943211009
6944276882,Spine Care And Ortho Care Hospital,12.9745134,77.5493883,Phone number not available,4.810255052
6944283814,Vijayashree Hospitals,12.8579673,77.5892687,Phone number not available,12.67783855
6944287716,Tanmay Hospital,12.9733764,77.5474034,Phone number not available,5.019243442
6944290474,Aayug Multi Speciality Hospital,12.9651337,77.714848,Phone number not available,13.14898701
6944290475,MGA Hospital,12.9568547,77.7002262,Phone number not available,11.66383738
6944290477,Blossom Hospital,12.8705439,77.6595353,Phone number not available,13.33904541
6944290482,Bhagavathi Multi Speciality Hospital,12.9160636,77.6308219,Phone number not available,7.398094913
6944290483,Sri Sai Ram Hospital - Bangalore,12.9144587,77.6003156,Phone number not available,6.427291257
6944309977,Susheel Hospital,12.9645006,77.5427189,Phone number not available,5.585190103
6944332151,Dhanush Hospital,12.9654318,77.52312,Phone number not available,7.68169959
6944336081,Sri Rama Hospital,13.2919219,77.5414865,Phone number not available,36.03119496
6944345114,Shreyas Maternity Home,13.074556,77.7821477,Phone number not available,23.38993184
6944364980,"Sadhana Eye Hospital, Bengaluru Urban",12.970023,77.6307987,Phone number not available,4.025343225
6944392358,Athreya Hospital,12.7945637,77.7068165,Phone number not available,23.2201514
6944392363,Av Hospital,12.938853,77.5786096,Phone number not available,4.022089235
6944392364,"Balaji Hospital, K.H. Ranganath Colony",12.9632506,77.5602901,Phone number not available,3.745843352
6944392375,Banasawadi Hospital,13.0205082,77.6509675,Phone number not available,8.228772302
6944392376,Bangalore Eye Hospital And Retina Centre,13.0221036,77.6387729,Phone number not available,7.416969098
6944400794,Belaku Eye Hospital,12.9110766,77.4800451,Phone number not available,14.05155057
6944400815,Bhavatprabhu Hospitals Pvt Limited,12.9670615,77.5903161,9674532435,0.651084883
6944418996,Nikad Ortho Centre,12.975802,77.6184806,Phone number not available,2.719965872
6944437383,Raksha Multispeciality Hospital,13.0195733,77.5419559,Phone number not available,7.715674482
6944449930,Cambridge Hospital,13.0195955,77.5419813,Phone number not available,7.715371526
6944464768,"Prasad Hospital, Bengaluru Urban",13.0983472,77.5773677,Phone number not available,14.17116782
6944464779,Saranalaya Hospital,13.1215236,77.6126106,Phone number not available,16.76302079
6944464784,Chaitanya Medical Centre Maternity and Surgical Care,13.0924287,77.5863665,Phone number not available,13.42570557
6944464994,Azad Nagar Maternity Home,12.9559644,77.5485635,Phone number not available,5.202110357
6944507652,Gunasheela Surgical and Maternity Hospital,12.9403012,77.5764705,Phone number not available,3.97887952
6944507653,Excel Care Hospital,12.9207314,77.5736019,Phone number not available,6.092309622
6944507654,"Vasan Eye Care Hospital, Jayanagar",12.9292015,77.5819811,Phone number not available,4.914761593
6944507655,Hi Tech Kidney Stone Hospital,12.9271389,77.579028,Phone number not available,5.224994415
6944507660,Dr. Vidyananda's Surgery and Dia Centre,12.9242515,77.573217,Phone number not available,5.744451454
6944507676,"Srushti Hospital, Bengaluru Rural",12.8981572,77.6207364,Phone number not available,8.707592831
6944507681,Parimala Speciality Hospital,12.9004567,77.6005474,Phone number not available,7.978716181
6944507682,Banashankari Hospital,12.8443653,77.583809,Phone number not available,14.22167441
6944525274,"R K Hospital, Bengaluru Urban",13.0138123,77.6354731,Phone number not available,6.49651185
6944525387,N.R. Hospital,12.7765624,77.7761999,Phone number not available,29.37934646
6944525392,"Prasad Eye Hospital, Bengaluru Urban",12.9356703,77.6079905,Phone number not available,4.315949935
6944525393,Unity Lifline Hospital Pvt Ltd,12.9819768,77.5108275,Phone number not available,9.049293005
6944525394,"Athreya Hospital, Chandpura",12.7945363,77.7068715,Phone number not available,23.22588745
6944525407,"Aditi Hospital, Anekal",12.708867,77.6985191,Phone number not available,31.37800754
6944543261,J.P.Nursing Home,13.0098352,77.5384723,Phone number not available,7.321193438
6944560298,North Side Health Centre,13.0267995,77.5870813,Phone number not available,6.146520955
6944574932,Anugrahaa Hospital,12.8548947,77.6681162,Phone number not available,15.30756352
6944577884,Amrutha Hospital,13.0657486,77.5992653,Phone number not available,10.4528912
6944578226,"Unity Hospital, Bengaluru Urban",12.910823,77.5207892,Phone number not available,10.41900582
6944578925,Dr Chaitanyas Dental Care & Implant Centre,12.9675989,77.6565533,Phone number not available,6.82744199
6944578930,Kareem E.N.T and Multispeciality Centre,12.9188948,77.6058905,Phone number not available,6.040148379
6944616329,HK Hospital,12.9085981,77.4784157,Phone number not available,14.33988853
6944707745,Chinmaya Narayana Super Specialty Centre,12.9777106,77.6459773,Phone number not available,5.701288011
6944888150,Jyothi The Lasik Vision Centre,12.9496114,77.5790786,Phone number not available,2.941548141
6944895084,S.S.G. Hospital,12.9868695,77.4794832,Phone number not available,12.48728391
6944925493,Bengaluru West Lions Hospital,12.9563042,77.5830996,Phone number not available,2.08009452
6944983789,Vijayanagar Global Hospital,12.9716932,77.5372057,Phone number not available,6.121613409
6945001435,Abhinava Eye Hospital,12.9550181,77.5683897,Phone number not available,3.323541498
6945010490,North Star Maternity and Nursing Home,12.9067079,77.5849275,Phone number not available,7.311104959
6945020140,"Punarjyoti Eye Hospital, Bengaluru Urban",12.9685305,77.5843965,9876574637,1.075482019
6945031202,Sundar Hospital,13.0080166,77.6221479,Phone number not available,5.062486309
6945033191,"Sri Ramakrishna Hospital, Bengaluru Urban",13.0121705,77.6961802,Phone number not available,11.97249857
6945050485,Sri Venkateshwara Eye Hospital,13.0423919,77.5136653,Phone number not available,11.68878713
6945075435,V Care Hospital,13.015884,77.5973475,Phone number not available,4.906738555
6945309984,A.M. Hospital,12.9601022,77.5315556,Phone number not available,6.860549361
6945348721,"Divya Drishti Eye Hospital, Vijayanagar",12.9586907,77.5352668,Phone number not available,6.499958537
6945398483,"Shridevi Hospital, Bengaluru Urban",12.9617045,77.5217172,Phone number not available,7.881975868
6945434031,Srinivasa Eye Hospital,13.0147224,77.6515616,Phone number not available,7.872472667
6945724749,Spandana Hospital And Medical Centre,13.0112166,77.6743939,Phone number not available,9.775178239
6945768862,Sreeniwasa Hospital,12.9732706,77.5725357,Phone number not available,2.298357791
6946978667,Ashraya Medinova Pvt Ltd,12.988865,77.5078006,Phone number not available,9.496749949
6947003707,Magadi Road Maternity Home,12.9741253,77.561823,Phone number not available,3.462940713
6947003719,"Manasa Hospital, Devana Halli Town",13.2508937,77.7153259,Phone number not available,33.70308703
6947033494,Pristine Hospital,12.9980009,77.5432779,Phone number not available,6.186361765
6947073234,"Taluk Hospital, Magadi",12.9576726,77.2261727,Phone number not available,39.85679659
6947106775,Dr Zamindar's Micro Surgical Eye Centre,13.0021978,77.6329015,Phone number not available,5.42136785
6947133204,Bharani Hospital,13.0161525,77.93533,Phone number not available,37.34042922
6947226705,K.T.G. Hospital,13.0004769,77.5054027,Phone number not available,10.08100459
6947247040,Vasan Eye Care Hospital,12.8980516,77.6339279,Phone number not available,9.297108233
6947371813,Health Cottage Hospital,12.9709143,77.6321116,Phone number not available,4.163626951
6947375064,Samastha Hospitals Pvt Ltd,12.89708,77.5473364,Phone number not available,9.719171305
6947430278,Poornima Hospital,13.0263344,77.595128,Phone number not available,6.054806166
6947459688,S.N. Hospital,13.0357404,77.7347061,Phone number not available,16.84579582
6947499707,Dr.Zamindar Microsurgical Eye Centre,13.0178594,77.6547577,Phone number not available,8.359466343
6947499708,Good Shepherd Hospital,13.0328036,77.633289,Phone number not available,8.016220767
6947499711,"Dr.Agarwal Eye Hospital, Frazer Town, Bangalore",12.9960196,77.6128413,Phone number not available,3.390349561
6947504016,"Mamta Hospital, Bengaluru Rural",13.0377564,77.5744454,Phone number not available,7.614239166
6947504017,S. J. Hospital,13.0360827,77.575065,Phone number not available,7.41687582
6947504038,Republic Hospital,12.964162,77.5982255,9876343657,0.990355735
6947556032,R.R. Hospital and Trauma Centre,12.9074269,77.5716318,Phone number not available,7.557465607
6947605383,Ashwini Hospital,13.074622,77.7854079,Phone number not available,23.70236988
6947662459,Geetha Hospital,13.0357169,77.7351701,Phone number not available,16.89030168
6947662464,"Suresh Hospital, Bengaluru Urban",13.0080397,77.6971089,Phone number not available,11.90314574
6947662469,Sri Ram Netralaya and Surgical Centre,13.0088071,77.6948659,Phone number not available,11.70430518
6947662474,"Patil Hospital, Bengaluru Urban",13.0090854,77.6969567,Phone number not available,11.92741108
6947662480,Sri Sai Eye Hospital,13.011968,77.6659168,Phone number not available,9.004128444
6947674447,Sri Ram Speciality Hospital,12.9543777,77.6209764,Phone number not available,3.540111575
6947678585,Zion Hospital And Research Centre Pvt.Ltd.,13.0149675,77.6354957,Phone number not available,6.590943046
6947682046,Jai Maruthi Hospital,13.0068811,77.5055636,Phone number not available,10.31134192
6947682067,Institute Of Nephro Urology hospital,12.9619528,77.5728562,Phone number not available,2.514912209
6947682083,Abhishek Nethradhama,13.2876501,77.5441284,Phone number not available,35.51780092
6947701126,Well Spring hospital,12.9425676,77.6224349,Phone number not available,4.509322817
6947707788,Aaroyha Mandir Hospital,13.0105038,77.5502452,Phone number not available,6.371329002
6947707895,"Punya Hospital, Bengaluru Urban",12.9862161,77.5374853,Phone number not available,6.295674742
6947707903,"Vijaya Hospital, Bengaluru Urban",12.9418827,77.48376,Phone number not available,12.37225009
6947716888,Sandhyashree Hospital,12.9761802,77.5261763,Phone number not available,7.332083478
6947716900,Dr. Sailaja's Super Speciality Eye Hospital,13.0276736,77.6614188,Phone number not available,9.606933065
6947750361,Hillside Hospital,12.9162753,77.5589544,Phone number not available,7.241162258
6947915400,Pd Hinduja Sindhi Hospital,12.9646359,77.5926509,8765436475,0.815691394
6948030294,Sri Ranga Arogyadhama,12.9986239,77.542782,Phone number not available,6.266410045
6948059664,Brinda Hospital,12.978053,77.5115959,Phone number not available,8.922735136
6948187839,Sankalpa Hospital,12.95119,77.4918039,Phone number not available,11.2792268
6948391975,Deepashri Hospital,12.9705902,77.5108503,Phone number not available,8.978571607
6948438892,Rotary Eye Hospital (A Unit Of Bangalore North Rotary Trust),12.9817233,77.5549364,Phone number not available,4.339941532
6948459038,Acharya Tulsi Jain Hospital,13.0218344,77.5567093,Phone number not available,6.847791506
6948552667,Get Well Hospital,12.9526616,77.61503,Phone number not available,3.149375757
6948590938,Premier Hospital,13.0241863,77.5960574,Phone number not available,5.819578917
6948603191,Sanjana Hospital,13.0032131,77.9399689,Phone number not available,37.67960233
6948604083,Gurukripa Hospital and Health Care Centre,13.0001802,77.5461146,Phone number not available,6.039223419
6948612047,Doddaballapur Government Hospital,13.2922861,77.5440493,Phone number not available,36.02873296
6948659616,Avian Medicare and Research Centre,13.0269276,77.6227882,Phone number not available,6.882730184
6948660801,Sri Shirdi Sai Hospital,13.2439141,77.7111925,Phone number not available,32.81402419
6948725861,Lakshmi Hospital,13.1579281,77.6252103,Phone number not available,20.96506966
6948751340,Vinayaka Health Care and Maternity Home,12.8919999,77.6257829,Phone number not available,9.540619701
6950061949,Town Hospital,12.8606211,77.7898177,Phone number not available,24.59479957
6950124287,Little Flower Hospital,13.0113204,77.6771966,Phone number not available,10.05272818
6950124308,"Venkateswara Hospital, Bengaluru Urban",12.9543465,77.5755649,Phone number not available,2.769752641
6950185719,Sai Baba Hospital,13.0093599,77.5222108,Phone number not available,8.794737723
6950185729,"Metro Hospital, Bengaluru Rural",12.8914666,77.5612113,Phone number not available,9.611890004
6950185730,"Madhu Hospital, Bengaluru Urban",12.9783164,77.5429603,Phone number not available,5.544044536
6950412307,Al- Habeeb Hospital,13.0236062,77.6196139,Phone number not available,6.398387776
6950412312,"Sri Srinivasa Hospital, Bengaluru Rural",13.074057,77.7855326,Phone number not available,23.68403254
6950412318,"Santhigiri Ayurveda and Siddha Hospital, Bengaluru Urban",12.9439008,77.6065864,Phone number not available,3.412189516
6991287881,Little Flower Hospital,13.0113125,77.6771851,Phone number not available,10.05122396
7139631443,Padmashree Diagnostics,12.9745983,77.5436792,Phone number not available,5.428385699
7140653801,Venus MultiSpeciality Hospital,12.9721779,77.6807872,Phone number not available,9.436575856
7179096799,Ramakrishna Hospital,12.8541208,77.6624811,Phone number not available,15.06948586
7184228803,Amma Hospital,12.7393554,77.8326981,Phone number not available,36.6048082
7191553713,Snehalaya Hospital,13.074125,77.2406392,Phone number not available,39.90210996
7202721810,"Government Hospital, Harohalli",12.6855324,77.4732538,Phone number not available,34.41630084
7202723905,Roopena Agrahara Government Hospital,12.9102142,77.6244654,Phone number not available,7.626527101
7202723961,"Government Hospital, Gankal",12.8502574,77.351978,Phone number not available,29.48434421
7202723969,"Government Hospital, Byramangala",12.7501642,77.4223844,Phone number not available,30.8676916
7202723975,"Government Hospital, Ballur",12.7509089,77.7882294,Phone number not available,32.38116287
7202723984,Government Hospital SULIKERE,12.938541,77.4485,Phone number not available,16.16584899
7202724016,"Government Hospital, Bidadi",12.7962258,77.3850964,Phone number not available,29.88088744
7202724055,"Government Hospital, Gunjur",12.922327,77.736038,Phone number not available,16.38024215
7202724062,Kaggalipura Government Hospital,12.8044859,77.5122898,Phone number not available,20.60120196
7202935749,Thippenalli Government Hospital,13.031132,77.483923,Phone number not available,13.59558067
7202935764,"Govt hospital,Rajanukunte",13.175209,77.564562,Phone number not available,22.82616252
7202935768,Malur Government Hospital,13.003563,77.936939,Phone number not available,37.35634913
7202935795,Government Hospita Sulibele,13.1861845,77.8014109,Phone number not available,32.76992712
7202935803,Laggere Government Hospital,13.009817,77.5231852,Phone number not available,8.726335475
7202935804,Madalakote Government Hospital,13.10954,77.312958,Phone number not available,34.04596765
7202935809,Seegehalli Government Hospital,13.0164321,77.7169887,Phone number not available,14.24628697
7202935811,Government Hospital Tadasigatta,13.2258309,77.3478756,Phone number not available,38.8079267
7202935821,Ullalu Government Hospital,12.9629127,77.4751834,Phone number not available,12.8811899
7202935825,Hoskote Government Hospital,13.077021,77.801123,Phone number not available,25.32938749
7202935829,K.C. General Hospital,12.993382,77.5694167,Phone number not available,3.553706612
7202935841,"Government Hospital, Budigere",13.1376521,77.744809,Phone number not available,24.64984052
7202935849,NELAMAHESHWARI Government Hospital,13.049152,77.510442,Phone number not available,12.4560316
7202935888,Jadigenahalli Hospital,13.046897,77.856923,Phone number not available,29.7121087
7202935895,Soluru Government Hospital,13.0693431,77.2417858,Phone number not available,39.63476071
7213498681,Sai Hospital,13.0701337,77.6329103,Phone number not available,11.71999812
7213514086,Sree Ranga Hospital,12.9358669,77.4927128,Phone number not available,11.65390771
7213565705,Cure Hospital,13.0324318,77.6085263,Phone number not available,6.91985497
7235403686,Yashas Neurocare,12.9853993,77.5454024,Phone number not available,5.444272753
7235403985,Focus Diagnostic Center,12.9870634,77.549951,Phone number not available,5.03131068
7257289028,ESI Krishnagiri,12.7570375,77.7990046,Phone number not available,32.65164702
7257289081,Janani Hospital,12.7520976,77.8031203,Phone number not available,33.35786369
7257289088,BMS Multi-speciality Hospital,12.7483681,77.8063928,Phone number not available,33.90326762
7257289109,Krishna Medical Centre,12.74089,77.825359,Phone number not available,35.92378127
7257289113,Sri Chandrasekara Hospital,12.78175,77.849611,Phone number not available,34.87956867
7257289131,"Government Hospital, Hosur",12.79191,77.805507,Phone number not available,30.45782391
7257518689,Lakshmi Hospital,12.7327982,77.8255221,Phone number not available,36.584986
7257518720,S.B.S Hospital,12.7338924,77.8259338,Phone number not available,36.52737276
7257518725,Sri Venkat Sai Private Hospital,12.7327925,77.8185057,Phone number not available,36.06717671
7258378647,Vittal Eye HOspital,12.931298,77.5412566,Phone number not available,7.258120806
7489626471,naveen clinc,13.0413777,77.5050224,Phone number not available,12.32837333
7514681681,Chamundi Hi Tech Hospital,12.9240924,77.6177848,Phone number not available,5.9221304
7572131814,Little Flower Hospital,12.9807257,77.6823734,Phone number not available,9.658224379
7572131816,NMPC Hospital,13.006205,77.7004289,Phone number not available,12.17694767
7572131818,R R Hospital,13.0082031,77.697197,Phone number not available,11.91826951
7572131819,Jeevan hospital,12.9901305,77.6713322,Phone number not available,8.652517592
7572131823,Vicky Family Life,13.0031618,77.7059531,Phone number not available,12.64967471
7572131824,Vedam Ayurveda Multi Speciality Hospital,12.9946786,77.6709989,Phone number not available,8.750121631
7572131833,Stroke Treatment Paralysis,13.0239995,77.6585299,Phone number not available,9.104861243
7572131835,Geriatric Hospitals,13.0283977,77.6599575,Phone number not available,9.539391357
7572131842,Health Plus Multi Speciality Hospital,13.0219523,77.6994046,Phone number not available,12.7334197
7572131844,Pragathi Piles Hospital,12.9966313,77.671863,Phone number not available,8.904395093
7572131863,Shanthinilaya Hospital,13.0207126,77.7015473,Phone number not available,12.8839717
7572131866,Mahaveer Hospitals,12.9895049,77.6741439,Phone number not available,8.933490083
7572131884,Eshawar HospItal,13.033219,77.6747693,Phone number not available,11.11924093
7572131892,Medihope Super Specialty Hospital,12.973637,77.675186,Phone number not available,8.831681275
7572131894,Cure N Care Hospital,12.989869,77.676589,Phone number not available,9.200870012
7572131905,Sad Bydya Shala Ayurvedic Hospital,13.0106539,77.6969464,Phone number not available,11.98791464
7572131909,Sri Lakshmi Super Speciality Hospital,13.011115,77.697361,Phone number not available,12.0482959
7572131920,Kids Health Link,13.0031938,77.7128759,Phone number not available,13.37339875
7572131923,Prakruti Hospital,12.991561,77.6757833,Phone number not available,9.158721888
7572131935,Amrutha Healthcare,13.0042616,77.7114153,Phone number not available,13.25237702
7572526686,Kamadhenu Hospital,12.975501,77.534972,Phone number not available,6.376144327
7572526687,Dr. Rajesh Hospitals Eye and Dental,12.9688989,77.6422131,Phone number not available,5.267359837
7572526690,OJUS Multi Speciality Hospital,12.957269,77.653945,Phone number not available,6.727841548
7572526693,Benaka Hospital,12.9835824,77.5289448,Phone number not available,7.135767267
7572526698,"Goverment Hospital, Hosahalli",12.9744928,77.5342045,Phone number not available,6.453179375
7572526699,Jhon's Medical Hospital,12.9635299,77.6662889,Phone number not available,7.920539108
7572526700,Vijaya Hospital,12.96767,77.5226459,Phone number not available,7.713646935
7572526703,Government Hospital,12.9780731,77.5251934,Phone number not available,7.454764605
7572526708,Sriprasad Ayurveda,12.9734087,77.5462808,Phone number not available,5.140937014
7572526709,Vidya Eye Hospital,12.9707429,77.5377684,Phone number not available,6.061974718
7572526710,Sai Baba Hospital,12.9698194,77.6317472,Phone number not available,4.129193912
7572526717,Shree Sai Speciality Hospital,12.9555948,77.6418006,Phone number not available,5.518551309
7572526718,Shree Dhanvantari Ayurveda Hospital,12.9615606,77.5222312,Phone number not available,7.829198223
7572526728,Srinivasam Cancer Care Multi Speciality Hospital,12.961509,77.523151,Phone number not available,7.731479641
7572526729,Hiremath Hospital,12.9754572,77.5361143,Phone number not available,6.252308405
7572526747,Magdum Hospital,12.9589495,77.6603768,Phone number not available,7.367211609
7572526750,Athoz Hospitals,12.9673428,77.6424996,Phone number not available,5.31206451
7572526752,G.R. Hospital,12.9802303,77.5548818,Phone number not available,4.30695003
7572526753,Sneha Horizon Hospital,12.9754301,77.5358001,Phone number not available,6.286097638
7572526756,Jagjeevanram Hospital,12.968292,77.524492,Phone number not available,7.509967488
7572526757,Kangroo Hospital,12.974339,77.542325,Phone number not available,5.573429396
7572526762,Abhinav Hospital,12.9757486,77.553782,Phone number not available,4.346490232
7572526763,Suhusannidhi Hospital,12.969102,77.534951,Phone number not available,6.373514876
7572526764,Abivrud Cancer Care & Research Centre,12.963967,77.4973049,Phone number not available,10.48245675
7572526766,Panchsheela Nagar Hospital,12.9745497,77.5208943,Phone number not available,7.894484264
7572526767,ESIC Hospital,12.9693009,77.6317545,Phone number not available,4.133618477
7572526776,Sai Ortho and Dental Centre,12.9698191,77.5360801,Phone number not available,6.247846811
7572526781,Ammashrees Hospital,12.9794315,77.5441641,Phone number not available,5.432433198
7572526782,Lohitha Hospital,12.963951,77.64308,Phone number not available,5.42328012
7572526783,Government Hospital,12.9639829,77.5188899,Phone number not available,8.154008578
7572526785,Revathi Hospital,12.9679971,77.5015759,Phone number not available,9.991822733
7572526787,Shanthakumari Hospital,12.9637162,77.5188263,Phone number not available,8.164116582
7572526791,Bengaluru Child Neurology and Rehabilitaion Centre,12.9735574,77.5461246,Phone number not available,5.158416107
7572526792,Sumati Hospital,12.976379,77.524439,Phone number not available,7.521372266
7572526798,Dr. Hemant Agrawal,12.9583212,77.659636,Phone number not available,7.302637106
7572526800,Dr. Nothesh Child Specialist,12.975423,77.540659,Phone number not available,5.760671899
7572526801,Swasthya Hospitals,12.9544981,77.6401572,Phone number not available,5.393228444
7572526802,Miracle Hopital,12.958861,77.654322,Phone number not available,6.727106772
7572526804,Sastry Memorial Hospital,12.9698787,77.5332834,Phone number not available,6.550461031
7572669019,Sri Swaranaamrutha Hospital,12.79603,77.706405,Phone number not available,23.05816911
7572669024,Springleaf Hospital,12.852699,77.667688,Phone number not available,15.4915525
7572669025,Sri Sai Hospitals,12.787708,77.741822,Phone number not available,26.02451931
7572669027,Hospitec Multispeciality Hospital,12.8859649,77.6489078,Phone number not available,11.27417975
7572669028,London Hospital,12.7928055,77.7031984,Phone number not available,23.18320914
7572669029,Global Speciality Hospital,12.808615,77.699385,Phone number not available,21.46823679
7572669031,Sri Venkateswara Hospital,12.9056165,77.6122688,Phone number not available,7.640164445
7572669032,Rajashri Grandhim Hospitals,12.895426,77.607662,Phone number not available,8.637093665
7572669035,Goldage Hospital,12.8908362,77.6040715,Phone number not available,9.083693672
7572669037,JJ Hospitals,12.8350141,77.6953077,Phone number not available,18.78734848
7572669044,Best E City Hospital,12.850377,77.6567056,Phone number not available,15.14022335
7572669047,Bhumika Hospital,12.826249,77.678792,Phone number not available,18.63768628
7572669050,Naryana Hrudalya,12.796888,77.706122,Phone number not available,22.96100434
7572669051,Elite Hospital,12.7815739,77.7713884,Phone number not available,28.61603269
7572669061,Aastha Hospital,12.7815275,77.7713727,Phone number not available,28.6187045
7576958025,Vinayaka Hospital,12.93753,77.549675,Phone number not available,6.112777825
7576958028,Unani Hospital,12.9633185,77.5790145,Phone number not available,1.855477194
7576958032,Rahul Maternity & Child Health Centre,12.9596227,77.6146819,Phone number not available,2.651969731
7576958033,Bangaluru Unani Hospital,12.9405198,77.5794387,Phone number not available,3.816234812
7576958037,Medcare Hospital,12.953049,77.574203,Phone number not available,2.976134521
7576958039,Sumanjara Hospital,12.9417439,77.5601782,Phone number not available,4.943623068
7576958043,Corporation Hospital,12.961345,77.560893,Phone number not available,3.743683754
7576958045,Mitralaya Hospital,12.945591,77.5712865,Phone number not available,3.802257832
7576958048,People Tree Hospitals,12.942076,77.553598,Phone number not available,5.466439785
7576958051,Apollo Specialty Hospital,12.936459,77.584422,Phone number not available,4.067090178
7576958052,Chamarajpet Government Hospital,12.9609494,77.5613939,Phone number not available,3.706402289
7576958060,Verna Hospital,12.940404,77.5580361,Phone number not available,5.215474912
7576958061,"Government Hospital, Banglore",12.9587464,77.5573456,Phone number not available,4.202124921
7576958062,Royan Maternity & Child Welfare Centre,12.960311,77.568274,Phone number not available,3.041623255
7576958064,Alisa Eye Hospital,12.9652304,77.6104334,Phone number not available,1.959014584
7576958065,Shekhar Hospital,12.945944,77.567404,Phone number not available,4.05582579
7576958066,Government Hospital,12.949104,77.563226,Phone number not available,4.162923805
7576958067,NM Hospital,12.9656756,77.6044993,Phone number not available,1.359556541
7576958068,Jeevini Sarvodaya Hospital,12.9415883,77.5641917,Phone number not available,4.645985121
7576958070,Mahaveer Ortho Care Speciality Centre,12.9569684,77.5695045,Phone number not available,3.103334438
7576958071,Raghavendra Hospital,12.938787,77.554296,Phone number not available,5.638257803
7576958074,Apaara Multi Speciality,12.938453,77.551329,Phone number not available,5.908805165
7576958078,Khincha Orthopaedic Centre,12.939882,77.573989,Phone number not available,4.151826033
7576958080,Parameshwari Hospital,12.948971,77.563543,Phone number not available,4.144809313
7576958083,Drishti Nethralaya,12.9422541,77.5506328,Phone number not available,5.713746365
7576958084,Furtde Hospital,12.9654649,77.5894756,8765436475,0.849439728
7576958086,Manavarthapet Pregnancy Hospital,12.9702549,77.5734571,Phone number not available,2.201086941
7576958089,Trinity Hospital and Heart Foundation,12.9434996,77.5796583,Phone number not available,3.505442618
7576958091,Spandana Heart Centre,12.957222,77.566486,Phone number not available,3.370452631
7576958092,Shas Eye Care,12.960296,77.614714,Phone number not available,2.617240733
7576958093,Matha Pitha Hospital,12.9420276,77.575634,Phone number not available,3.855646384
7576958095,ESI Hospital,12.972126,77.573351,Phone number not available,2.205104129
7576958096,Herige Hospital,12.960972,77.5609696,Phone number not available,3.749042325
7576958099,Trustwell Hospitals,12.9606226,77.5839851,Phone number not available,1.637276832
7576958106,Gleneagles Global Hospitals,12.9654497,77.5999044,Phone number not available,0.983067704
7576958116,Punarjyoti Eye Hospital,12.9658901,77.589928,9875645374,0.783354534
7576958117,Swastik Eye Hospital,12.9479647,77.5696395,Phone number not available,3.725758547
7576958118,Dave Gray Hospital,12.9458294,77.5799015,Phone number not available,3.261822922
7576958120,Dr. Rudrappa's Hospital,12.9650303,77.5954946,Phone number not available,0.788239275
7577248184,Aveksha Hospital,13.081777,77.54091,Phone number not available,13.4899868
7577248186,Shishuka Children's Speciality Hospital,13.0193799,77.6535352,Phone number not available,8.360749322
7577248193,Skin Remediez,13.0091103,77.6579493,Phone number not available,8.098160067
7577248218,Navya Hospital,13.0524836,77.6120857,Phone number not available,9.1792159
7577248221,Ovum Birthing Centre,13.0201491,77.6516628,Phone number not available,8.259735234
7577248224,Icon Hospital,13.0528211,77.6041042,Phone number not available,9.068342635
7577248227,Medicure Hospital,13.0283463,77.6298629,Phone number not available,7.399069887
7577248235,Motherhood Women & Children Hospital,13.0102697,77.6525909,Phone number not available,7.675761058
7577248239,Santhamma Hospital,13.0866852,77.5535728,Phone number not available,13.4834988
7577248241,Lavender Lotus,13.0555779,77.6050535,Phone number not available,9.385508222
7577248246,Feran Hospital,13.0263661,77.6302142,Phone number not available,7.233982749
7577248254,Super Specialty Eye Hospital,13.0166883,77.6604049,Phone number not available,8.777055355
7577248260,Endocrine Speciality Centre,13.013761,77.648529,Phone number not available,7.54701816
7577248262,Shree Sai Hospital,13.0885791,77.5455057,Phone number not available,13.98522292
7577248265,Axis Hospital,13.065863,77.604213,Phone number not available,10.5101029
7577248266,Anjani Women's Day Care Hospital,13.0188119,77.647187,Phone number not available,7.797071183
7577248269,Eswar Women and Day Care Hospital,13.0658472,77.5992844,Phone number not available,10.46395621
7577248275,CDEC Hospital,13.026989,77.6281742,Phone number not available,7.174557581
7577248277,Pranam Dental Hospital,13.029101,77.620568,Phone number not available,6.994957449
7577248278,Milaan Hospital,13.0109537,77.6476418,Phone number not available,7.281238363
7577248279,Cloudnine Hospital,13.020084,77.654053,Phone number not available,8.453720597
7579683177,NDR Multi Speciality Hospital,13.1051735,77.6027864,Phone number not available,14.85199052
7579683179,Chiguru Hospital,13.1706303,77.5642307,Phone number not available,22.3271412
7579683185,Vinay ENT Hospital,13.3000435,77.5431097,Phone number not available,36.89683916
7579683193,Valens Hospitals,13.120977,77.6176084,Phone number not available,16.77770224
7579683198,L V Hospital,13.2894212,77.5428233,Phone number not available,35.73400157
7579683199,Lakshmi Eye Hospital,13.2918229,77.5426817,Phone number not available,36.00023464
7579683202,Sri Satya Sai Hospital,13.2568985,77.5527163,Phone number not available,31.99967682
7579683203,Bengalure Hospital,13.1039081,77.5754898,Phone number not available,14.81059358
7579683205,Sriharsha Hospital,13.2904584,77.5417045,Phone number not available,35.86677562
7579683206,Drishti Eye Hospital,13.2936599,77.5423072,Phone number not available,36.20830135
7579683209,Shree Kempegowda Hospital,13.2802652,77.5537552,Phone number not available,34.56041209
7579683213,Amruth Hospital,13.102578,77.627895,Phone number not available,14.99546499
7579683214,Manasa Hospital,13.303695,77.54428,Phone number not available,37.28000812
7579683215,Rangalakshmi Netralaya,13.098943,77.576716,Phone number not available,14.24584727
7579683217,Saralaya Hospital,13.121743,77.629478,Phone number not available,17.10659219
7579683219,Apurva Hospital,13.101335,77.59858,Phone number not available,14.40222078
7579683220,Om Shakthi Hospital,13.1215701,77.6126077,Phone number not available,16.76811422
7579683221,Nandi Multispeciality Hospital,13.3051005,77.5452852,Phone number not available,37.41927363
7579683225,Shadab Hospital,13.1025229,77.6278506,Phone number not available,14.98834031
7579683228,Rainbow Health Care,13.0997321,77.5760891,Phone number not available,14.34173618
7579683232,Jayalakshmi Hospital,13.098909,77.596219,Phone number not available,14.12539253
7579683237,NDR Orthopaedic,13.10051,77.595603,Phone number not available,14.3022653
7579683240,Sri Arogya Hospital,13.1215659,77.6250507,Phone number not available,16.98506032
7579683242,Navachethana Hospital,13.1037314,77.5837165,Phone number not available,14.69882356
7579683243,Peoples Tree Hospital,13.0955377,77.587079,Phone number not available,13.76658257
7579683247,Sapthagiri Hospital,13.1213668,77.6174817,Phone number not available,16.81841979
7579683249,Manasa Trinity Heart Hospital,13.099705,77.598111,Phone number not available,14.2192988
7579683251,Pavan Hospitals,13.0981485,77.596139,Phone number not available,14.04067891
7579683252,Kushi Hospital,13.0938081,77.5804166,Phone number not available,13.63172717
7579683253,Manasa Hospital,13.142831,77.6727356,Phone number not available,20.84576675
7579683255,Anandamaya Hospital,13.2905107,77.5414815,Phone number not available,35.87631707
7579683258,Varsha Hospital,13.1026581,77.6297932,Phone number not available,15.05618136
7579683260,Ashwini Hospital,13.2955,77.5417,Phone number not available,36.42059799
7579683261,Just Smiles,13.098668,77.5826843,Phone number not available,14.14638016
7579924706,Rajalakshmi Multi Specialty Hospital,12.916588,77.579602,Phone number not available,6.337328528
7579924711,Lavis Hospital,12.925461,77.609021,Phone number not available,5.424133149
7579924715,Sevakshetra Hospital,12.9215119,77.5724702,Phone number not available,6.056849446
7579924725,Perfetual Help Hospital,12.9055752,77.5425258,Phone number not available,9.227492942
7579924729,Shree Vaishnavi Heart Centre and Multi Speciality,12.9121632,77.6098276,Phone number not available,6.868515246
7579924731,Marigold Hospital,12.9136262,77.6045369,Phone number not available,6.585314995
7579924732,Bharathi Hospitals,12.9334096,77.5622345,Phone number not available,5.472152697
7579924738,Devi Hospital,12.9239445,77.6198634,Phone number not available,6.039314469
7579924744,Devagiri Hospital,12.924153,77.565797,Phone number not available,6.109919963
7579924753,Pothys Hospital,12.9159348,77.6034098,Phone number not available,6.311380675
7579924754,Center for Liver Disease Hospital,12.916234,77.593019,Phone number not available,6.19021672
7579924760,Sudha Prevention Centre,12.9254569,77.5467101,Phone number not available,7.252555231
7579924762,Sahasra Hospital,12.920651,77.5746118,Phone number not available,6.062450156
7579924766,Health India Hospital,12.9265183,77.6090995,Phone number not available,5.314995417
7579924768,Shanti Hospital,12.9202202,77.5772991,Phone number not available,6.015111479
7579924779,Spurthy Hospital,12.923857,77.611355,Phone number not available,5.674406891
7579924780,Apollo Cradle Maternity & Children's Hospital,12.916885,77.585258,Phone number not available,6.18541857
7579924783,St. Martha's Hospital,12.906113,77.542548,Phone number not available,9.178311375
7976310624,Chinmaya Hrudayalaya,12.9778121,77.6459447,Phone number not available,5.699068088
8188036050,Sri Lakshmi Multi Speciality Hospital,12.8812376,77.7516894,Phone number not available,19.86976435
8188038448,Government Hospital,13.0903942,77.4966765,Phone number not available,16.854683
8188038457,Government Hospital,13.0803204,77.5535057,Phone number not available,12.81807351
8188038463,Bangalore Healthcare Center Pranav Ayurveda Hospital,13.0770012,77.5581038,Phone number not available,12.30651857
8188038473,Government Hospital,13.070554,77.5388968,Phone number not available,12.47344074
8188038495,Kruthika Hospital,13.0650144,77.5041964,Phone number not available,14.18538602
8188038499,Dr Saju George Kottakkal,13.0621628,77.5177637,Phone number not available,12.97752386
8188038523,Fathima Hospital,13.0559513,77.5329456,Phone number not available,11.43121889
8188038553,Esi Dispensary,13.0439933,77.5065494,Phone number not available,12.38607011
8188038570,Baptist Hospital,13.0362022,77.5896998,Phone number not available,7.163201252
8188038578,Ashwini Hospital,13.0313399,77.5055985,Phone number not available,11.61021209
8188038584,Esi Hospital Peenya 1st Stage,13.0280728,77.5231858,Phone number not available,9.868213103
8188038659,Nayanalaya Super Speciality Eye Care Centre,13.006795,77.571159,Phone number not available,4.584802774
8188038670,Srinidhi Health Centre,13.005821,77.5725746,Phone number not available,4.412031343
8188038674,Orthopedic & Eye Care Center,13.0054934,77.5719519,Phone number not available,4.41655703
8188038681,ESI Hospital,13.004596,77.5540033,Phone number not available,5.631840707
8188038683,Ramani Orthopaedic Hospital,13.0044307,77.5785238,Phone number not available,3.97345638
8188038684,Atharva Ayurdhama Ayurvedic Hospital,13.004314,77.547749,Phone number not available,6.146480872
8188038691,RICH CARE HOMEOPATHY,13.0015461,77.5721683,Phone number not available,4.038522825
8188038705,Poornayu Ayurveda Hospital,12.998238,77.551173,Phone number not available,5.459800695
8188038706,Appllo Diagnostic,12.9981064,77.6008126,Phone number not available,3.014203688
8188038712,Supra Diagnostics Spine Care And Ortho Care Hospital,12.9969996,77.5730038,Phone number not available,3.580232536
8188038718,K.C.General Hospital,12.9960244,77.5693714,Phone number not available,3.760935764
8188038735,ESIC Model Hospital,12.9916924,77.5539007,Phone number not available,4.84150105
8188038742,Government Hospital,12.9905045,77.5566355,Phone number not available,4.517559622
8188038743,Esi Hospital Bangalore,12.9904985,77.5530924,Phone number not available,4.861743371
8188038786,Government Hospital,12.9844963,77.5551801,Phone number not available,4.402550983
8188038795,Anupama Hospital,12.9831814,77.4787872,Phone number not available,12.51438447
8364348296,Sun Orthopaedic center,13.0332219,77.5549236,Phone number not available,8.009020896
8428403226,St. Johns hospital Emergency ward,12.9305937,77.6186159,Phone number not available,5.327883985
8534917998,CUPA Small Animals Hospital,13.026494,77.5933758,Phone number not available,6.070677446
8776646948,Healing Hands Advanced Physiotherapy Clinic,12.9128623,77.5714903,Phone number not available,6.99200983
8873805759,Narayan Multispeciality clinic,12.9288444,77.5828703,Phone number not available,4.929305967
9141920967,Trinity Central Hospital,12.9888611,77.5737749,Phone number not available,2.866712616
9192967331,Adarsh Hospital,12.9208444,77.4847891,Phone number not available,13.09689489
9276855256,clinic,12.9395279,77.586437,Phone number not available,3.684652419
9527967835,Shree Manyata Hospitals,13.0544507,77.6316369,Phone number not available,10.05736616
9730853893,Kidwai Cancer Institute Radiation Block,12.9355966,77.5971575,Phone number not available,4.054104287
9739831278,Altius Hospital,13.0344639,77.6291947,Phone number not available,7.948945031
9776823581,Neo Hospital,12.8474,77.6439378,Phone number not available,14.87608218
9830781726,Maya Hospital,12.9365283,77.7046741,Phone number not available,12.65255899
9841433907,Devi Eye Hospital,12.9556074,77.7216631,Phone number not available,13.98403296
9874033652,Sahasra Hospital,12.9337751,77.7433234,Phone number not available,16.75906232
9884952776,Cloudnine Hospital,12.8832909,77.5500857,9972999729,10.92801938
9934012104,My Dentist,12.9429852,77.5460604,Phone number not available,6.0817525
10051271572,Siddanth Hospital,12.9563317,77.7305782,Phone number not available,14.93289123
10137293053,Apollo Pharmacy,12.9263862,77.6766068,Phone number not available,10.31172808
10218105725,Sai Krupa Hospital,12.8629885,77.4330082,Phone number not available,21.21264632
10731125349,Suraksha Hospital,13.048083,77.628791,Phone number not available,9.285157223
10963251389,The Local Dentist,12.9094156,77.663997,Phone number not available,10.3106803
11031908387,Janani Clinics,12.9918503,77.5437825,9036817877,5.845962887
11085582504,Lotus Hospital,12.9144825,77.6491563,Phone number not available,8.768112879
11272209797,Ayaans Hospital,12.9782618,77.6435889,Phone number not available,5.451844352
11295071515,NIMHANS Department Of Psychiatric and Neuro Rehabilitation,12.9400516,77.5954768,Phone number not available,3.546610789
11295217457,NIMHANS MR-PET CENTER,12.9396498,77.5967825,Phone number not available,3.601582211
11295246682,NIMHANS Physiotherapy Center,12.9402037,77.5954721,Phone number not available,3.529695353
11299121541,Zymus Hospitals,12.8784742,77.5450234,Phone number not available,11.65121445
11303711371,Cadabam's Hospitals,12.906071,77.5869281,Phone number not available,7.356547977
11342710964,JJ Hospital,12.8350455,77.693987,Phone number not available,18.70095526
11385217932,"Fortis Hospital, Nagarbhavi",12.9596032,77.5112481,Phone number not available,9.038506965
11407254183,MEDSTAR Speciality Hospital,13.058128,77.5860405,Phone number not available,9.623958092
11684501144,Span Health Center,12.9774449,77.6271297,Phone number not available,3.674409428
11700164026,Smile Smart Dental & Implant Centre,12.8804891,77.6552588,Phone number not available,12.15834664
11710491602,Uvin Care Hospital,12.9778346,77.6282837,Phone number not available,3.805009745
11813227397,Bengaluru City Hospital,12.9075935,77.5707809,Phone number not available,7.569648569
11853321328,Aspire Hospital,12.9971683,77.6145878,Phone number not available,3.607861022
11869384815,Dhee Hospital,12.8835095,77.550214,Phone number not available,10.90008861
11903094814,Sai Thunga Hospitals,12.9240012,77.6481809,Phone number not available,7.951366386
